[{"OBJECT_NAME":"ORBITER SN3","OBJECT_ID":"2023-084AE","EPOCH":"2026-03-09T23:12:21.976128","MEAN_MOTION":15.32943891,"ECCENTRICITY":0.00075889,"INCLINATION":97.61,"RA_OF_ASC_NODE":206.6768,"ARG_OF_PERICENTER":331.7947,"MEAN_ANOMALY":28.2883,"EPHEMERIS_TYPE":0,"CLASSIFICATION_TYPE":"U","NORAD_CAT_ID":56960,"ELEMENT_SET_NO":999,"REV_AT_EPOCH":15228,"BSTAR":0.00032835432,"MEAN_MOTION_DOT":0.00010378,"MEAN_MOTION_DDOT":0},{"OBJECT_NAME":"STARLINK-35619","OBJECT_ID":"2025-245Y","EPOCH":"2026-03-09T21:36:38.383200","MEAN_MOTION":15.30196026,"ECCENTRICITY":0.00010516,"INCLINATION":53.1568,"RA_OF_ASC_NODE":282.5662,"ARG_OF_PERICENTER":88.295,"MEAN_ANOMALY":271.8171,"EPHEMERIS_TYPE":0,"CLASSIFICATION_TYPE":"U","NORAD_CAT_ID":66256,"ELEMENT_SET_NO":999,"REV_AT_EPOCH":2129,"BSTAR":0.00064158049,"MEAN_MOTION_DOT":0.00018688,"MEAN_MOTION_DDOT":0}]
